start=new Date('2021-11-13T00:00:00.000Z').valueOf();
sats=[{"PERIAPSIS":"546.336","RCS_SIZE":"LARGE","MEAN_MOTION_DDOT":"0.0000000000000","ECCENTRICITY":"0.00012950","EPHEMERIS_TYPE":"0","EPOCH":"2021-11-12T20:48:07.564608","OBJECT_TYPE":"PAYLOAD","ELEMENT_SET_NO":"999","INCLINATION":"53.0537","SEMIMAJOR_AXIS":"6925.368","BSTAR":"0.00000983610000","SITE":"AFETR","PERIOD":"95.593","GP_ID":"189644536","LAUNCH_DATE":"2019-11-11","OBJECT_NAME":"STARLINK-1057","REV_AT_EPOCH":"11065","MEAN_MOTION_DOT":"-0.00000135","COUNTRY_CODE":"US","CENTER_NAME":"EARTH","TLE_LINE2":"2 44762  53.0537  89.7411 0001295  81.6310 278.4826 15.06393733110654","MEAN_MOTION":"15.06393733","TIME_SYSTEM":"UTC","REF_FRAME":"TEME","RA_OF_ASC_NODE":"89.7411","APOAPSIS":"548.130","MEAN_ELEMENT_THEORY":"SGP4","FILE":"3213639","MEAN_ANOMALY":"278.4826","NORAD_CAT_ID":"44762","OBJECT_ID":"2019-074BB","ARG_OF_PERICENTER":"81.6310","TLE_LINE1":"1 44762U 19074BB  21316.86675422 -.00000135  00000-0  98361-5 0  9999","CLASSIFICATION_TYPE":"U","DECAY_DATE":null},{"DECAY_DATE":null,"CLASSIFICATION_TYPE":"U","TLE_LINE1":"1 44763U 19074BC  21316.82068824 -.00000961  00000-0 -45637-4 0  9993","OBJECT_ID":"2019-074BC","ARG_OF_PERICENTER":"94.6889","NORAD_CAT_ID":"44763","MEAN_ANOMALY":"265.4276","FILE":"3213639","MEAN_ELEMENT_THEORY":"SGP4","APOAPSIS":"548.312","RA_OF_ASC_NODE":"109.9541","REF_FRAME":"TEME","TIME_SYSTEM":"UTC","TLE_LINE2":"2 44763  53.0548 109.9541 0001545  94.6889 265.4276 15.06390763110373","MEAN_MOTION":"15.06390763","CENTER_NAME":"EARTH","COUNTRY_CODE":"US","MEAN_MOTION_DOT":"-0.00000961","REV_AT_EPOCH":"11037","OBJECT_NAME":"STARLINK-1058","PERIOD":"95.593","GP_ID":"189644781","LAUNCH_DATE":"2019-11-11","SITE":"AFETR","BSTAR":"-0.00004563700000","SEMIMAJOR_AXIS":"6925.377","INCLINATION":"53.0548","ELEMENT_SET_NO":"999","OBJECT_TYPE":"PAYLOAD","EPOCH":"2021-11-12T19:41:47.463936","EPHEMERIS_TYPE":"0","ECCENTRICITY":"0.00015450","MEAN_MOTION_DDOT":"0.0000000000000","RCS_SIZE":"LARGE","PERIAPSIS":"546.172"},{"FILE":"3213639","NORAD_CAT_ID":"44764","MEAN_ANOMALY":"254.2590","TLE_LINE1":"1 44764U 19074BD  21316.66404094 -.00000420  00000-0 -92918-5 0  9994","OBJECT_ID":"2019-074BD","ARG_OF_PERICENTER":"105.8550","CLASSIFICATION_TYPE":"U","DECAY_DATE":null,"REV_AT_EPOCH":"11062","COUNTRY_CODE":"US","MEAN_MOTION_DOT":"-0.00000420","TLE_LINE2":"2 44764  53.0549  90.6550 0001376 105.8550 254.2590 15.06396654110621","MEAN_MOTION":"15.06396654","CENTER_NAME":"EARTH","TIME_SYSTEM":"UTC","RA_OF_ASC_NODE":"90.6550","REF_FRAME":"TEME","APOAPSIS":"548.177","MEAN_ELEMENT_THEORY":"SGP4","BSTAR":"-0.00000929180000","SITE":"AFETR","GP_ID":"189643048","PERIOD":"95.592","LAUNCH_DATE":"2019-11-11","OBJECT_NAME":"STARLINK-1059","PERIAPSIS":"546.271","MEAN_MOTION_DDOT":"0.0000000000000","RCS_SIZE":"LARGE","ECCENTRICITY":"0.00013760","EPOCH":"2021-11-12T15:56:13.137216","EPHEMERIS_TYPE":"0","OBJECT_TYPE":"PAYLOAD","ELEMENT_SET_NO":"999","INCLINATION":"53.0549","SEMIMAJOR_AXIS":"6925.359"},{"CLASSIFICATION_TYPE":"U","DECAY_DATE":null,"FILE":"3213639","NORAD_CAT_ID":"44765","MEAN_ANOMALY":"269.4907","OBJECT_ID":"2019-074BE","ARG_OF_PERICENTER":"90.6250","TLE_LINE1":"1 44765U 19074BE  21316.68246756 -.00000715  00000-0 -29141-4 0  9990","REF_FRAME":"TEME","RA_OF_ASC_NODE":"90.5628","APOAPSIS":"548.255","MEAN_ELEMENT_THEORY":"SGP4","REV_AT_EPOCH":"11062","MEAN_MOTION_DOT":"-0.00000715","COUNTRY_CODE":"US","CENTER_NAME":"EARTH","MEAN_MOTION":"15.06392032","TLE_LINE2":"2 44765  53.0540  90.5628 0001469  90.6250 269.4907 15.06392032110625","TIME_SYSTEM":"UTC","OBJECT_NAME":"STARLINK-1060","BSTAR":"-0.00002914100000","SITE":"AFETR","LAUNCH_DATE":"2019-11-11","GP_ID":"189643296","PERIOD":"95.593","OBJECT_TYPE":"PAYLOAD","ELEMENT_SET_NO":"999","INCLINATION":"53.0540","SEMIMAJOR_AXIS":"6925.373","PERIAPSIS":"546.221","RCS_SIZE":"LARGE","MEAN_MOTION_DDOT":"0.0000000000000","ECCENTRICITY":"0.00014690","EPHEMERIS_TYPE":"0","EPOCH":"2021-11-12T16:22:45.197184"},{"TIME_SYSTEM":"UTC","CENTER_NAME":"EARTH","TLE_LINE2":"2 44766  53.0542 110.2705 0001598  95.6298 264.4873 15.06389894110364","MEAN_MOTION":"15.06389894","MEAN_MOTION_DOT":"-0.00001044","COUNTRY_CODE":"US","REV_AT_EPOCH":"11036","MEAN_ELEMENT_THEORY":"SGP4","APOAPSIS":"548.351","RA_OF_ASC_NODE":"110.2705","REF_FRAME":"TEME","OBJECT_ID":"2019-074BF","ARG_OF_PERICENTER":"95.6298","TLE_LINE1":"1 44766U 19074BF  21316.74697234 -.00001044  00000-0 -51202-4 0  9998","NORAD_CAT_ID":"44766","MEAN_ANOMALY":"264.4873","FILE":"3213639","DECAY_DATE":null,"CLASSIFICATION_TYPE":"U","EPHEMERIS_TYPE":"0","EPOCH":"2021-11-12T17:55:38.410176","ECCENTRICITY":"0.00015980","RCS_SIZE":"LARGE","MEAN_MOTION_DDOT":"0.0000000000000","PERIAPSIS":"546.138","INCLINATION":"53.0542","SEMIMAJOR_AXIS":"6925.380","ELEMENT_SET_NO":"999","OBJECT_TYPE":"PAYLOAD","PERIOD":"95.593","GP_ID":"189644036","LAUNCH_DATE":"2019-11-11","SITE":"AFETR","BSTAR":"-0.00005120200000","OBJECT_NAME":"STARLINK-1061"},{"ELEMENT_SET_NO":"999","OBJECT_TYPE":"PAYLOAD","INCLINATION":"53.0535","SEMIMAJOR_AXIS":"6925.330","PERIAPSIS":"546.279","RCS_SIZE":"LARGE","MEAN_MOTION_DDOT":"0.0000000000000","ECCENTRICITY":"0.00013220","EPHEMERIS_TYPE":"0","EPOCH":"2021-11-12T17:45:01.189440","OBJECT_NAME":"STARLINK-1062","BSTAR":"0.00007974300000","SITE":"AFETR","GP_ID":"189644281","LAUNCH_DATE":"2019-11-11","PERIOD":"95.592","RA_OF_ASC_NODE":"110.3083","REF_FRAME":"TEME","APOAPSIS":"548.110","MEAN_ELEMENT_THEORY":"SGP4","REV_AT_EPOCH":"11036","MEAN_MOTION_DOT":"0.00000907","COUNTRY_CODE":"US","CENTER_NAME":"EARTH","MEAN_MOTION":"15.06406138","TLE_LINE2":"2 44767  53.0535 110.3083 0001322  94.1493 265.9648 15.06406138110360","TIME_SYSTEM":"UTC","CLASSIFICATION_TYPE":"U","DECAY_DATE":null,"FILE":"3213639","MEAN_ANOMALY":"265.9648","NORAD_CAT_ID":"44767","ARG_OF_PERICENTER":"94.1493","OBJECT_ID":"2019-074BG","TLE_LINE1":"1 44767U 19074BG  21316.73959710  .00000907  00000-0  79743-4 0  9993"},{"TIME_SYSTEM":"UTC","CENTER_NAME":"EARTH","TLE_LINE2":"2 44768  53.0533 109.6195 0001476  90.0825 270.0333 15.06392588110392","MEAN_MOTION":"15.06392588","MEAN_MOTION_DOT":"0.00000595","COUNTRY_CODE":"US","REV_AT_EPOCH":"11039","MEAN_ELEMENT_THEORY":"SGP4","APOAPSIS":"548.258","RA_OF_ASC_NODE":"109.6195","REF_FRAME":"TEME","OBJECT_ID":"2019-074BH","ARG_OF_PERICENTER":"90.0825","TLE_LINE1":"1 44768U 19074BH  21316.89440861  .00000595  00000-0  58874-4 0  9998","NORAD_CAT_ID":"44768","MEAN_ANOMALY":"270.0333","FILE":"3213639","DECAY_DATE":null,"CLASSIFICATION_TYPE":"U","EPHEMERIS_TYPE":"0","EPOCH":"2021-11-12T21:27:56.903904","ECCENTRICITY":"0.00014760","RCS_SIZE":"LARGE","MEAN_MOTION_DDOT":"0.0000000000000","PERIAPSIS":"546.214","SEMIMAJOR_AXIS":"6925.371","INCLINATION":"53.0533","OBJECT_TYPE":"PAYLOAD","ELEMENT_SET_NO":"999","GP_ID":"189643549","LAUNCH_DATE":"2019-11-11","PERIOD":"95.593","SITE":"AFETR","BSTAR":"0.00005887400000","OBJECT_NAME":"STARLINK-1063"},{"FILE":"3213571","MEAN_ANOMALY":"316.3012","NORAD_CAT_ID":"44769","ARG_OF_PERICENTER":"43.8202","OBJECT_ID":"2019-074BJ","TLE_LINE1":"1 44769U 19074BJ  21316.81801764  .00012663  00000-0  17140-3 0  9993","CLASSIFICATION_TYPE":"U","DECAY_DATE":null,"REV_AT_EPOCH":"11089","MEAN_MOTION_DOT":"0.00012663","COUNTRY_CODE":"US","CENTER_NAME":"EARTH","MEAN_MOTION":"15.58133229","TLE_LINE2":"2 44769  53.0564  83.7021 0002551  43.8202 316.3012 15.58133229110892","TIME_SYSTEM":"UTC","RA_OF_ASC_NODE":"83.7021","REF_FRAME":"TEME","APOAPSIS":"394.789","MEAN_ELEMENT_THEORY":"SGP4","BSTAR":"0.00017140000000","SITE":"AFETR","PERIOD":"92.418","GP_ID":"189621552","LAUNCH_DATE":"2019-11-11","OBJECT_NAME":"STARLINK-1064","PERIAPSIS":"391.335","RCS_SIZE":"LARGE","MEAN_MOTION_DDOT":"0.0000000000000","ECCENTRICITY":"0.00025510","EPHEMERIS_TYPE":"0","EPOCH":"2021-11-12T19:37:56.724096","ELEMENT_SET_NO":"999","OBJECT_TYPE":"PAYLOAD","INCLINATION":"53.0564","SEMIMAJOR_AXIS":"6771.197"},{"SITE":"AFETR","GP_ID":"189644537","PERIOD":"95.418","LAUNCH_DATE":"2019-11-11","BSTAR":"0.00021348000000","OBJECT_NAME":"STARLINK-1065","ECCENTRICITY":"0.00023030","EPOCH":"2021-11-12T20:48:52.598880","EPHEMERIS_TYPE":"0","PERIAPSIS":"537.193","MEAN_MOTION_DDOT":"0.0000000000000","RCS_SIZE":"LARGE","SEMIMAJOR_AXIS":"6916.921","INCLINATION":"53.0019","ELEMENT_SET_NO":"999","OBJECT_TYPE":"PAYLOAD","TLE_LINE1":"1 44770U 19074BK  21316.86727545  .00003139  00000-0  21348-3 0  9997","ARG_OF_PERICENTER":"110.0906","OBJECT_ID":"2019-074BK","FILE":"3213639","MEAN_ANOMALY":"250.0331","NORAD_CAT_ID":"44770","CLASSIFICATION_TYPE":"U","DECAY_DATE":null,"MEAN_MOTION":"15.09153926","TLE_LINE2":"2 44770  53.0019 103.6333 0002303 110.0906 250.0331 15.09153926110441","CENTER_NAME":"EARTH","TIME_SYSTEM":"UTC","REV_AT_EPOCH":"11044","COUNTRY_CODE":"US","MEAN_MOTION_DOT":"0.00003139","MEAN_ELEMENT_THEORY":"SGP4","REF_FRAME":"TEME","RA_OF_ASC_NODE":"103.6333","APOAPSIS":"540.379"},{"RA_OF_ASC_NODE":"109.9649","REF_FRAME":"TEME","APOAPSIS":"548.185","MEAN_ELEMENT_THEORY":"SGP4","REV_AT_EPOCH":"11037","COUNTRY_CODE":"US","MEAN_MOTION_DOT":"0.00001265","MEAN_MOTION":"15.06392907","TLE_LINE2":"2 44771  53.0538 109.9649 0001372  90.0998 270.0148 15.06392907110371","CENTER_NAME":"EARTH","TIME_SYSTEM":"UTC","CLASSIFICATION_TYPE":"U","DECAY_DATE":null,"FILE":"3213639","NORAD_CAT_ID":"44771","MEAN_ANOMALY":"270.0148","TLE_LINE1":"1 44771U 19074BL  21316.81700533  .00001265  00000-0  10380-3 0  9993","OBJECT_ID":"2019-074BL","ARG_OF_PERICENTER":"90.0998","OBJECT_TYPE":"PAYLOAD","ELEMENT_SET_NO":"999","SEMIMAJOR_AXIS":"6925.370","INCLINATION":"53.0538","PERIAPSIS":"546.285","MEAN_MOTION_DDOT":"0.0000000000000","RCS_SIZE":"LARGE","ECCENTRICITY":"0.00013720","EPOCH":"2021-11-12T19:36:29.260512","EPHEMERIS_TYPE":"0","OBJECT_NAME":"STARLINK-1067","BSTAR":"0.00010380000000","SITE":"AFETR","GP_ID":"189644782","LAUNCH_DATE":"2019-11-11","PERIOD":"95.593"}];
